IRIDIUM 119             
1 42959U 17061E   25109.35271677  .00000059  00000+0  13960-4 0  9995
2 42959  86.4034 202.3345 0002038  93.4396 266.7033 14.34218010394065
IRIDIUM 107             
1 42960U 17061F   25109.30197224  .00000277  00000+0  91709-4 0  9996
2 42960  86.4035 202.3745 0001761 104.6014 255.5377 14.34220069394071
IRIDIUM 132             
1 42961U 17061G   25109.23855009 -.00000012  00000+0 -11351-4 0  9995
2 42961  86.4038 202.3840 0001948  99.3314 260.8102 14.34217561394057
IRIDIUM 136             
1 42962U 17061H   25109.34003117  .00000036  00000+0  58209-5 0  9991
2 42962  86.4036 202.3458 0001933  93.2471 266.8946 14.34219019394087
IRIDIUM 139             
1 42963U 17061J   25109.34637416  .00000046  00000+0  92146-5 0  9996
2 42963  86.4038 202.3981 0002061  98.7168 261.4261 14.34217971394094
IRIDIUM 125             
1 42964U 17061K   25108.35692525  .00000387  00000+0  13103-3 0  9991
2 42964  86.4038 202.8635 0001679  90.3092 269.8296 14.34215559393969
IRIDIUM 135             
1 43070U 17083A   25109.16827540  .00000372  00000+0  12581-3 0  9994
2 43070  86.3958 139.2901 0002533  94.5323 265.6162 14.34217045383372
IRIDIUM 138             
1 43071U 17083B   25108.63549943  .00000325  00000+0  10901-3 0  9996
2 43071  86.3950 139.1915 0002386  80.8192 279.3273 14.34215410383286
